TDRS 13                 
1 42915U 17047A   26185.21965733 -.00000088  00000+0  00000+0 0  9993
2 42915   3.4556   3.1305 0015105 109.4266 237.3445  1.00272365 32513
QZS-3 (MICHIBIKI-3)     
1 42917U 17048A   26185.03350576 -.00000336  00000+0  00000+0 0  9995
2 42917   0.0780 132.4069 0002173 329.6707 319.0396  1.00268021 32424
AMAZONAS 5              
1 42934U 17053A   26183.21406852 -.00000272  00000+0  00000+0 0  9996
2 42934   0.0325 325.1790 0001664 101.7064 229.4374  1.00272699 32199
ASIASAT 9               
1 42942U 17057A   26184.31966852  .00000000  00000+0  00000+0 0  9990
2 42942   0.0460  63.8286 0002281  35.1460  59.6195  1.00263851 32026
INTELSAT 37E (IS-37E)   
1 42950U 17059A   26185.21861733 -.00000129  00000+0  00000+0 0  9996
2 42950   0.0186  39.2814 0002794  64.2124 239.4448  1.00272747 32239
BSAT-4A                 
1 42951U 17059B   26185.24401079 -.00000338  00000+0  00000+0 0  9995
2 42951   0.0350 343.9116 0003798  96.0559  39.9659  1.00270313 31977
QZS-4 (MICHIBIKI-4)     
1 42965U 17062A   26184.75246353 -.00000312  00000+0  00000+0 0  9993
2 42965  40.1000 343.2760 0746909 268.3365  79.4461  1.00294465 31967
SES-11 (ECHOSTAR 105)   
1 42967U 17063A   26185.20142463 -.00000077  00000+0  00000+0 0  9992
2 42967   0.0170 341.9511 0002858 121.0865 146.7458  1.00271458 31892
KOREASAT 5A             
1 42984U 17067A   26184.90271443 -.00000346  00000+0  00000+0 0  9991
2 42984   0.0214 306.4610 0000850 150.4844 263.0767  1.00268488 31692
ALCOMSAT 1              
1 43039U 17078A   26183.72023929 -.00000176  00000+0  00000+0 0  9999
2 43039   0.0152  62.6702 0002552  34.5312  58.0257  1.00270572 31458
SBIRS GEO-3 (USA 282)   
1 43162U 18009A   26183.76484260  .00000138  00000+0  00000+0 0  9991
2 43162   2.1946  12.8052 0002218  84.5660 299.3770  1.00272730 31003
AL YAH 3                
1 43174U 18012A   26184.93305546 -.00000145  00000+0  00000+0 0  9996
2 43174   1.5924  82.9211 0004013  17.9315 136.8797  1.00270912 31017
SES-14                  
1 43175U 18012B   26183.78702291 -.00000268  00000+0  00000+0 0  9993
2 43175   0.0127  27.7702 0001294  73.8319  55.0474  1.00270755  7182
GOES 17                 
1 43226U 18022A   26185.13323792 -.00000171  00000+0  00000+0 0  9990
2 43226   0.9775  85.4459 0000698  49.8448 105.3262  1.00271299 30599
HISPASAT 30W-6          
1 43228U 18023A   26183.64796667 -.00000205  00000+0  00000+0 0  9990
2 43228   0.0424  45.4228 0005796  35.4158  43.1160  1.00271750 30561
SUPERBIRD-B3            
1 43271U 18033A   26183.75721590 -.00000081  00000+0  00000+0 0  9996
2 43271   0.0160  15.2519 0001193  88.0014 252.1498  1.00272254 30214
HYLAS 4                 
1 43272U 18033B   26183.78979625  .00000000  00000+0  00000+0 0  9994
2 43272   0.0202  24.2276 0000974 121.2451  26.1743  1.00268685 30229
IRNSS-1I                
1 43286U 18035A   26184.76641808  .00000080  00000+0  00000+0 0  9997
2 43286  28.7906  73.9396 0017711 182.9770 355.7923  1.00278714 30248
USA 283                 
1 43339U 18036A   26182.46854735  .00000000  00000+0  00000+0 0  9999
2 43339   0.0077  35.3198 0000064   9.2412 177.7500  1.00269042 25430
COSMOS 2526             
1 43432U 18037A   26184.17811301 -.00000334  00000+0  00000+0 0  9997
2 43432   0.0350  79.2804 0000667 199.1645 194.9126  1.00268250 30122
APSTAR-6C               
1 43450U 18041A   26183.89900381 -.00000307  00000+0  00000+0 0  9997
2 43450   0.0397 309.4367 0000233  81.3830 347.7401  1.00269634 29963
BANGABANDHUSAT-1        
1 43463U 18044A   26185.11711579 -.00000351  00000+0  00000+0 0  9999
2 43463   0.0303  92.0836 0001967  12.5413 338.7744  1.00272505 29879
SES-12                  
1 43488U 18049A   26184.95592774 -.00000257  00000+0  00000+0 0  9991
2 43488   0.0119   5.3361 0000568 245.0675 110.7075  1.00269259 29585
FENGYUN 2H              
1 43491U 18050A   26185.09531830 -.00000118  00000+0  00000+0 0  9995
2 43491   3.0725  78.8823 0001816 121.6728 195.1533  1.00269281 29602
BEIDOU-2 IGSO-7         
1 43539U 18057A   26182.89122331 -.00000033  00000+0  00000+0 0  9998
2 43539  55.1981 162.9292 0104946 237.8611 308.6338  1.00246939 29273
TELSTAR 19V             
1 43562U 18059A   26183.28491894 -.00000269  00000+0  00000+0 0  9994
2 43562   0.0294 140.3912 0003108 341.2792 198.2196  1.00270343 29295
TELKOM 4 (MERAH PUTIH)  
1 43587U 18064A   26185.24349079  .00000000  00000+0  00000+0 0  9994
2 43587   0.0155  29.7660 0001597 105.5277 342.6285  1.00269580 29056
TELSTAR 18V             
1 43611U 18069A   26184.60796400 -.00000282  00000+0  00000+0 0  9993
2 43611   0.0214 294.5384 0002083 168.4918 175.4673  1.00270999 28807
AZERSPACE 2 (IS-38)     
1 43632U 18074A   26183.80536772  .00000000  00000+0  00000+0 0  9994
2 43632   0.0228  36.6472 0001885  74.6484 144.5914  1.00276723 28607
HORIZONS-3E             
1 43633U 18074B   26183.68738308 -.00000020  00000+0  00000+0 0  9993
2 43633   0.0166 197.9110 0000602  85.7941  53.4880  1.00271230 28491
AEHF-4 (USA 288)        
1 43651U 18079A   26185.20873728 -.00000263  00000+0  00000+0 0  9993
2 43651   1.4370   5.3359 0059701 355.3582 289.0584  1.00267052 28463
BEIDOU-3 G1             
1 43683U 18085A   26185.18263007 -.00000099  00000+0  00000+0 0  9992
2 43683   2.9092  96.9262 0008523 353.8604  57.0665  1.00270831 28235
